CCSDS_OMM_VERS = 2.0
CREATION_DATE  = 
ORIGINATOR     = 

OBJECT_NAME    = STARLINK-35297
OBJECT_ID      = 2025-232F
CENTER_NAME    = EARTH
REF_FRAME      = TEME
TIME_SYSTEM    = UTC
MEAN_ELEMENT_THEORY = SGP/SGP4

EPOCH          = 2025-10-30T06:00:02.000160
MEAN_MOTION    = 15.73122990
ECCENTRICITY   = .00011389
INCLINATION    = 53.1589
RA_OF_ASC_NODE = 353.5712
ARG_OF_PERICENTER = 97.8072
MEAN_ANOMALY   = 189.5077

EPHEMERIS_TYPE = 0
CLASSIFICATION_TYPE = U
NORAD_CAT_ID   = 66010
ELEMENT_SET_NO = 999
REV_AT_EPOCH   = 256
BSTAR          = -.15203446E-1
MEAN_MOTION_DOT = -.1855371E-1
MEAN_MOTION_DDOT = 0

CCSDS_OMM_VERS = 2.0
CREATION_DATE  = 
ORIGINATOR     = 

OBJECT_NAME    = STARLINK-35256
OBJECT_ID      = 2025-232G
CENTER_NAME    = EARTH
REF_FRAME      = TEME
TIME_SYSTEM    = UTC
MEAN_ELEMENT_THEORY = SGP/SGP4

EPOCH          = 2025-10-30T06:00:02.000160
MEAN_MOTION    = 15.73142731
ECCENTRICITY   = .00012149
INCLINATION    = 53.1587
RA_OF_ASC_NODE = 353.5546
ARG_OF_PERICENTER = 99.7310
MEAN_ANOMALY   = 195.2376

EPHEMERIS_TYPE = 0
CLASSIFICATION_TYPE = U
NORAD_CAT_ID   = 66011
ELEMENT_SET_NO = 999
REV_AT_EPOCH   = 256
BSTAR          = -.15398905E-1
MEAN_MOTION_DOT = -.1877503E-1
MEAN_MOTION_DDOT = 0

CCSDS_OMM_VERS = 2.0
CREATION_DATE  = 
ORIGINATOR     = 

OBJECT_NAME    = STARLINK-35293
OBJECT_ID      = 2025-232H
CENTER_NAME    = EARTH
REF_FRAME      = TEME
TIME_SYSTEM    = UTC
MEAN_ELEMENT_THEORY = SGP/SGP4

EPOCH          = 2025-10-30T06:00:02.000160
MEAN_MOTION    = 15.73133956
ECCENTRICITY   = .0001125
INCLINATION    = 53.1588
RA_OF_ASC_NODE = 353.5665
ARG_OF_PERICENTER = 90.5941
MEAN_ANOMALY   = 198.6318

EPHEMERIS_TYPE = 0
CLASSIFICATION_TYPE = U
NORAD_CAT_ID   = 66012
ELEMENT_SET_NO = 999
REV_AT_EPOCH   = 256
BSTAR          = -.15337363E-1
MEAN_MOTION_DOT = -.1870305E-1
MEAN_MOTION_DDOT = 0

CCSDS_OMM_VERS = 2.0
CREATION_DATE  = 
ORIGINATOR     = 

OBJECT_NAME    = STARLINK-35307
OBJECT_ID      = 2025-232J
CENTER_NAME    = EARTH
REF_FRAME      = TEME
TIME_SYSTEM    = UTC
MEAN_ELEMENT_THEORY = SGP/SGP4

EPOCH          = 2025-10-30T06:00:02.000160
MEAN_MOTION    = 15.73136999
ECCENTRICITY   = .00011714
INCLINATION    = 53.1589
RA_OF_ASC_NODE = 353.5628
ARG_OF_PERICENTER = 103.2945
MEAN_ANOMALY   = 187.8455

EPHEMERIS_TYPE = 0
CLASSIFICATION_TYPE = U
NORAD_CAT_ID   = 66013
ELEMENT_SET_NO = 999
REV_AT_EPOCH   = 249
BSTAR          = -.15343583E-1
MEAN_MOTION_DOT = -.1871215E-1
MEAN_MOTION_DDOT = 0

CCSDS_OMM_VERS = 2.0
CREATION_DATE  = 
ORIGINATOR     = 

OBJECT_NAME    = STARLINK-35395
OBJECT_ID      = 2025-232K
CENTER_NAME    = EARTH
REF_FRAME      = TEME
TIME_SYSTEM    = UTC
MEAN_ELEMENT_THEORY = SGP/SGP4

EPOCH          = 2025-10-30T06:00:02.000160
MEAN_MOTION    = 15.73134100
ECCENTRICITY   = .00011949
INCLINATION    = 53.1587
RA_OF_ASC_NODE = 353.5585
ARG_OF_PERICENTER = 104.6542
MEAN_ANOMALY   = 188.4047

EPHEMERIS_TYPE = 0
CLASSIFICATION_TYPE = U
NORAD_CAT_ID   = 66014
ELEMENT_SET_NO = 999
REV_AT_EPOCH   = 255
BSTAR          = -.15318019E-1
MEAN_MOTION_DOT = -.1868327E-1
MEAN_MOTION_DDOT = 0

CCSDS_OMM_VERS = 2.0
CREATION_DATE  = 
ORIGINATOR     = 

OBJECT_NAME    = STARLINK-34622
OBJECT_ID      = 2025-232L
CENTER_NAME    = EARTH
REF_FRAME      = TEME
TIME_SYSTEM    = UTC
MEAN_ELEMENT_THEORY = SGP/SGP4

EPOCH          = 2025-10-30T06:00:02.000160
MEAN_MOTION    = 15.73143733
ECCENTRICITY   = .00013555
INCLINATION    = 53.1588
RA_OF_ASC_NODE = 353.5428
ARG_OF_PERICENTER = 110.7594
MEAN_ANOMALY   = 189.9555

EPHEMERIS_TYPE = 0
CLASSIFICATION_TYPE = U
NORAD_CAT_ID   = 66015
ELEMENT_SET_NO = 999
REV_AT_EPOCH   = 245
BSTAR          = -.15374051E-1
MEAN_MOTION_DOT = -.1875067E-1
MEAN_MOTION_DDOT = 0

CCSDS_OMM_VERS = 2.0
CREATION_DATE  = 
ORIGINATOR     = 

OBJECT_NAME    = STARLINK-35243
OBJECT_ID      = 2025-232M
CENTER_NAME    = EARTH
REF_FRAME      = TEME
TIME_SYSTEM    = UTC
MEAN_ELEMENT_THEORY = SGP/SGP4

EPOCH          = 2025-10-30T06:00:02.000160
MEAN_MOTION    = 15.73130342
ECCENTRICITY   = .00008278
INCLINATION    = 53.1587
RA_OF_ASC_NODE = 353.5467
ARG_OF_PERICENTER = 83.6723
MEAN_ANOMALY   = 215.1383

EPHEMERIS_TYPE = 0
CLASSIFICATION_TYPE = U
NORAD_CAT_ID   = 66016
ELEMENT_SET_NO = 999
REV_AT_EPOCH   = 256
BSTAR          = -.1526504E-1
MEAN_MOTION_DOT = -.1862157E-1
MEAN_MOTION_DDOT = 0

CCSDS_OMM_VERS = 2.0
CREATION_DATE  = 
ORIGINATOR     = 

OBJECT_NAME    = STARLINK-35398
OBJECT_ID      = 2025-232N
CENTER_NAME    = EARTH
REF_FRAME      = TEME
TIME_SYSTEM    = UTC
MEAN_ELEMENT_THEORY = SGP/SGP4

EPOCH          = 2025-10-30T06:00:02.000160
MEAN_MOTION    = 15.73112629
ECCENTRICITY   = .00015612
INCLINATION    = 53.1587
RA_OF_ASC_NODE = 353.5350
ARG_OF_PERICENTER = 105.6264
MEAN_ANOMALY   = 198.9451

EPHEMERIS_TYPE = 0
CLASSIFICATION_TYPE = U
NORAD_CAT_ID   = 66017
ELEMENT_SET_NO = 999
REV_AT_EPOCH   = 248
BSTAR          = -.1511087E-1
MEAN_MOTION_DOT = -.1845182E-1
MEAN_MOTION_DDOT = 0

CCSDS_OMM_VERS = 2.0
CREATION_DATE  = 
ORIGINATOR     = 

OBJECT_NAME    = STARLINK-35376
OBJECT_ID      = 2025-232P
CENTER_NAME    = EARTH
REF_FRAME      = TEME
TIME_SYSTEM    = UTC
MEAN_ELEMENT_THEORY = SGP/SGP4

EPOCH          = 2025-10-30T06:00:02.000160
MEAN_MOTION    = 15.73128351
ECCENTRICITY   = .00012466
INCLINATION    = 53.1587
RA_OF_ASC_NODE = 353.5387
ARG_OF_PERICENTER = 85.5253
MEAN_ANOMALY   = 217.1178

EPHEMERIS_TYPE = 0
CLASSIFICATION_TYPE = U
NORAD_CAT_ID   = 66018
ELEMENT_SET_NO = 999
REV_AT_EPOCH   = 256
BSTAR          = -.15244149E-1
MEAN_MOTION_DOT = -.1860148E-1
MEAN_MOTION_DDOT = 0

CCSDS_OMM_VERS = 2.0
CREATION_DATE  = 
ORIGINATOR     = 

OBJECT_NAME    = STARLINK-35382
OBJECT_ID      = 2025-232Q
CENTER_NAME    = EARTH
REF_FRAME      = TEME
TIME_SYSTEM    = UTC
MEAN_ELEMENT_THEORY = SGP/SGP4

EPOCH          = 2025-10-30T06:00:02.000160
MEAN_MOTION    = 15.73130727
ECCENTRICITY   = .00007897
INCLINATION    = 53.1588
RA_OF_ASC_NODE = 353.5499
ARG_OF_PERICENTER = 80.8806
MEAN_ANOMALY   = 216.0128

EPHEMERIS_TYPE = 0
CLASSIFICATION_TYPE = U
NORAD_CAT_ID   = 66019
ELEMENT_SET_NO = 999
REV_AT_EPOCH   = 256
BSTAR          = -.15269788E-1
MEAN_MOTION_DOT = -.1862656E-1
MEAN_MOTION_DDOT = 0

CCSDS_OMM_VERS = 2.0
CREATION_DATE  = 
ORIGINATOR     = 

OBJECT_NAME    = STARLINK-35430
OBJECT_ID      = 2025-232R
CENTER_NAME    = EARTH
REF_FRAME      = TEME
TIME_SYSTEM    = UTC
MEAN_ELEMENT_THEORY = SGP/SGP4

EPOCH          = 2025-10-30T06:00:02.000160
MEAN_MOTION    = 15.73143664
ECCENTRICITY   = .00007926
INCLINATION    = 53.1584
RA_OF_ASC_NODE = 353.5263
ARG_OF_PERICENTER = 95.3622
MEAN_ANOMALY   = 213.0258

EPHEMERIS_TYPE = 0
CLASSIFICATION_TYPE = U
NORAD_CAT_ID   = 66020
ELEMENT_SET_NO = 999
REV_AT_EPOCH   = 255
BSTAR          = -.15406687E-1
MEAN_MOTION_DOT = -.1878041E-1
MEAN_MOTION_DDOT = 0

CCSDS_OMM_VERS = 2.0
CREATION_DATE  = 
ORIGINATOR     = 

OBJECT_NAME    = STARLINK-35432
OBJECT_ID      = 2025-232S
CENTER_NAME    = EARTH
REF_FRAME      = TEME
TIME_SYSTEM    = UTC
MEAN_ELEMENT_THEORY = SGP/SGP4

EPOCH          = 2025-10-30T06:00:02.000160
MEAN_MOTION    = 15.73101853
ECCENTRICITY   = .00013453
INCLINATION    = 53.1581
RA_OF_ASC_NODE = 353.5302
ARG_OF_PERICENTER = 113.9925
MEAN_ANOMALY   = 192.5060

EPHEMERIS_TYPE = 0
CLASSIFICATION_TYPE = U
NORAD_CAT_ID   = 66021
ELEMENT_SET_NO = 999
REV_AT_EPOCH   = 248
BSTAR          = -.15014516E-1
MEAN_MOTION_DOT = -.1834016E-1
MEAN_MOTION_DDOT = 0

