STARLINK-35297          
1 66010U 25232F   25303.25002315 -.01855371  00000+0 -15203-1 0  9991
2 66010  53.1589 353.5712 0001138  97.8072 189.5077 15.73122990  2567
STARLINK-35256          
1 66011U 25232G   25303.25002315 -.01877503  00000+0 -15399-1 0  9999
2 66011  53.1587 353.5546 0001214  99.7310 195.2376 15.73142731  2563
STARLINK-35293          
1 66012U 25232H   25303.25002315 -.01870305  00000+0 -15337-1 0  9995
2 66012  53.1588 353.5665 0001125  90.5941 198.6318 15.73133956  2569
STARLINK-35307          
1 66013U 25232J   25303.25002315 -.01871215  00000+0 -15344-1 0  9995
2 66013  53.1589 353.5628 0001171 103.2945 187.8455 15.73136999  2491
STARLINK-35395          
1 66014U 25232K   25303.25002315 -.01868327  00000+0 -15318-1 0  9997
2 66014  53.1587 353.5585 0001194 104.6542 188.4047 15.73134100  2558
STARLINK-34622          
1 66015U 25232L   25303.25002315 -.01875067  00000+0 -15374-1 0  9999
2 66015  53.1588 353.5428 0001355 110.7594 189.9555 15.73143733  2451
STARLINK-35243          
1 66016U 25232M   25303.25002315 -.01862157  00000+0 -15265-1 0  9995
2 66016  53.1587 353.5467 0000827  83.6723 215.1383 15.73130342  2564
STARLINK-35398          
1 66017U 25232N   25303.25002315 -.01845182  00000+0 -15111-1 0  9995
2 66017  53.1587 353.5350 0001561 105.6264 198.9451 15.73112629  2480
STARLINK-35376          
1 66018U 25232P   25303.25002315 -.01860148  00000+0 -15244-1 0  9992
2 66018  53.1587 353.5387 0001246  85.5253 217.1178 15.73128351  2563
STARLINK-35382          
1 66019U 25232Q   25303.25002315 -.01862656  00000+0 -15270-1 0  9998
2 66019  53.1588 353.5499 0000789  80.8806 216.0128 15.73130727  2565
STARLINK-35430          
1 66020U 25232R   25303.25002315 -.01878041  00000+0 -15407-1 0  9997
2 66020  53.1584 353.5263 0000792  95.3622 213.0258 15.73143664  2557
STARLINK-35432          
1 66021U 25232S   25303.25002315 -.01834016  00000+0 -15015-1 0  9997
2 66021  53.1581 353.5302 0001345 113.9925 192.5060 15.73101853  2485
